STARLINK-33814          
1 63582U 25076P   25319.52654642  .00039212  00000+0  14255-2 0  9993
2 63582  43.0014 246.1683 0001558 264.7923  95.2751 15.27613451 34371
STARLINK-33817          
1 63583U 25076Q   25319.84706156  .00036467  00000+0  13258-2 0  9998
2 63583  43.0001 244.2767 0000858  29.4015 330.6884 15.27638160 34412
STARLINK-33820          
1 63584U 25076R   25319.83934341  .00041697  00000+0  15155-2 0  9996
2 63584  43.0038 244.2123 0000749 298.1681  61.9095 15.27595989 34422
STARLINK-33813          
1 63585U 25076S   25319.84062744  .00055233  00000+0  19994-2 0  9993
2 63585  43.0058 244.2248 0004144 296.6902  63.3525 15.27611841 34425
STARLINK-33834          
1 63586U 25076T   25319.80994881  .00011798  00000+0  43739-3 0  9999
2 63586  42.9984 244.8527 0000537 172.7137 187.3722 15.27591910 34413
STARLINK-33830          
1 63587U 25076U   25319.80737459  .00045274  00000+0  16422-2 0  9990
2 63587  43.0010 244.8352 0003039 285.7628  74.2888 15.27626699 34412
STARLINK-33651          
1 63588U 25076V   25319.80866233  .00032751  00000+0  11930-2 0  9999
2 63588  42.9998 244.8457 0000926 271.0753  88.9993 15.27618844 34413
STARLINK-33788          
1 63589U 25076W   25319.82536792  .00032939  00000+0  12000-2 0  9993
2 63589  43.0029 244.9722 0000927 253.3645 106.7105 15.27612052 34410
STARLINK-33805          
1 63590U 25076X   25319.83563670  .00038290  00000+0  13929-2 0  9998
2 63590  43.0001 245.0376 0000921 297.3108  62.7650 15.27600756 34419
STARLINK-33702          
1 63591U 25076Y   25319.52785231  .00037965  00000+0  13823-2 0  9995
2 63591  42.9970 246.1788 0000944 270.1972  89.8772 15.27574093 34379
STARLINK-33666          
1 63592U 25076Z   25319.82022231  .00025894  00000+0  94618-3 0  9993
2 63592  42.9999 244.9267 0001255 281.0779  78.9932 15.27615173 34418
STARLINK-33723          
1 63593U 25076AA  25319.86119378  .00023159  00000+0  84757-3 0  9992
2 63593  43.0013 244.3780 0001752 274.9986  85.0665 15.27613688 34427
STARLINK-33791          
1 63594U 25076AB  25319.82279726  .00027311  00000+0  99729-3 0  9992
2 63594  43.0014 244.9451 0001726 280.1386  79.9271 15.27613861 34411
STARLINK-33831          
1 63595U 25076AC  25319.79964453  .00050297  00000+0  18245-2 0  9999
2 63595  43.0085 244.7212 0003760 282.4547  77.5884 15.27583155 34413
STARLINK-33879          
1 63634U 25083A   25319.20323999  .00033176  00000+0  12084-2 0  9993
2 63634  43.0026 292.1174 0001656 264.6525  95.4138 15.27613488 32553
STARLINK-33854          
1 63635U 25083B   25319.61853788  .00035566  00000+0  12944-2 0  9993
2 63635  42.9989 289.2146 0001661 252.6815 107.3855 15.27613430 32625
STARLINK-33864          
1 63636U 25083C   25318.29167363  .00037526  00000+0  13656-2 0  9993
2 63636  43.0006 297.3153 0001865 280.2743  79.7899 15.27596636 32447
