[{"OBJECT_NAME":"STARLINK-33814","OBJECT_ID":"2025-076P","EPOCH":"2025-11-15T12:38:13.610688","MEAN_MOTION":15.27613451,"ECCENTRICITY":0.0001558,"INCLINATION":43.0014,"RA_OF_ASC_NODE":246.1683,"ARG_OF_PERICENTER":264.7923,"MEAN_ANOMALY":95.2751,"EPHEMERIS_TYPE":0,"CLASSIFICATION_TYPE":"U","NORAD_CAT_ID":63582,"ELEMENT_SET_NO":999,"REV_AT_EPOCH":3437,"BSTAR":0.0014255,"MEAN_MOTION_DOT":0.00039212,"MEAN_MOTION_DDOT":0},{"OBJECT_NAME":"STARLINK-33817","OBJECT_ID":"2025-076Q","EPOCH":"2025-11-15T20:19:46.118784","MEAN_MOTION":15.2763816,"ECCENTRICITY":8.58e-5,"INCLINATION":43.0001,"RA_OF_ASC_NODE":244.2767,"ARG_OF_PERICENTER":29.4015,"MEAN_ANOMALY":330.6884,"EPHEMERIS_TYPE":0,"CLASSIFICATION_TYPE":"U","NORAD_CAT_ID":63583,"ELEMENT_SET_NO":999,"REV_AT_EPOCH":3441,"BSTAR":0.0013258,"MEAN_MOTION_DOT":0.00036467,"MEAN_MOTION_DDOT":0},{"OBJECT_NAME":"STARLINK-33820","OBJECT_ID":"2025-076R","EPOCH":"2025-11-15T20:08:39.270624","MEAN_MOTION":15.27595989,"ECCENTRICITY":7.49e-5,"INCLINATION":43.0038,"RA_OF_ASC_NODE":244.2123,"ARG_OF_PERICENTER":298.1681,"MEAN_ANOMALY":61.9095,"EPHEMERIS_TYPE":0,"CLASSIFICATION_TYPE":"U","NORAD_CAT_ID":63584,"ELEMENT_SET_NO":999,"REV_AT_EPOCH":3442,"BSTAR":0.0015155,"MEAN_MOTION_DOT":0.00041697,"MEAN_MOTION_DDOT":0},{"OBJECT_NAME":"STARLINK-33813","OBJECT_ID":"2025-076S","EPOCH":"2025-11-15T20:10:30.210816","MEAN_MOTION":15.27611841,"ECCENTRICITY":0.0004144,"INCLINATION":43.0058,"RA_OF_ASC_NODE":244.2248,"ARG_OF_PERICENTER":296.6902,"MEAN_ANOMALY":63.3525,"EPHEMERIS_TYPE":0,"CLASSIFICATION_TYPE":"U","NORAD_CAT_ID":63585,"ELEMENT_SET_NO":999,"REV_AT_EPOCH":3442,"BSTAR":0.0019994,"MEAN_MOTION_DOT":0.00055233,"MEAN_MOTION_DDOT":0},{"OBJECT_NAME":"STARLINK-33834","OBJECT_ID":"2025-076T","EPOCH":"2025-11-15T19:26:19.577184","MEAN_MOTION":15.2759191,"ECCENTRICITY":5.37e-5,"INCLINATION":42.9984,"RA_OF_ASC_NODE":244.8527,"ARG_OF_PERICENTER":172.7137,"MEAN_ANOMALY":187.3722,"EPHEMERIS_TYPE":0,"CLASSIFICATION_TYPE":"U","NORAD_CAT_ID":63586,"ELEMENT_SET_NO":999,"REV_AT_EPOCH":3441,"BSTAR":0.00043739,"MEAN_MOTION_DOT":0.00011798,"MEAN_MOTION_DDOT":0},{"OBJECT_NAME":"STARLINK-33830","OBJECT_ID":"2025-076U","EPOCH":"2025-11-15T19:22:37.164576","MEAN_MOTION":15.27626699,"ECCENTRICITY":0.0003039,"INCLINATION":43.001,"RA_OF_ASC_NODE":244.8352,"ARG_OF_PERICENTER":285.7628,"MEAN_ANOMALY":74.2888,"EPHEMERIS_TYPE":0,"CLASSIFICATION_TYPE":"U","NORAD_CAT_ID":63587,"ELEMENT_SET_NO":999,"REV_AT_EPOCH":3441,"BSTAR":0.0016422,"MEAN_MOTION_DOT":0.00045274,"MEAN_MOTION_DDOT":0},{"OBJECT_NAME":"STARLINK-33651","OBJECT_ID":"2025-076V","EPOCH":"2025-11-15T19:24:28.425312","MEAN_MOTION":15.27618844,"ECCENTRICITY":9.26e-5,"INCLINATION":42.9998,"RA_OF_ASC_NODE":244.8457,"ARG_OF_PERICENTER":271.0753,"MEAN_ANOMALY":88.9993,"EPHEMERIS_TYPE":0,"CLASSIFICATION_TYPE":"U","NORAD_CAT_ID":63588,"ELEMENT_SET_NO":999,"REV_AT_EPOCH":3441,"BSTAR":0.001193,"MEAN_MOTION_DOT":0.00032751,"MEAN_MOTION_DDOT":0},{"OBJECT_NAME":"STARLINK-33788","OBJECT_ID":"2025-076W","EPOCH":"2025-11-15T19:48:31.788288","MEAN_MOTION":15.27612052,"ECCENTRICITY":9.27e-5,"INCLINATION":43.0029,"RA_OF_ASC_NODE":244.9722,"ARG_OF_PERICENTER":253.3645,"MEAN_ANOMALY":106.7105,"EPHEMERIS_TYPE":0,"CLASSIFICATION_TYPE":"U","NORAD_CAT_ID":63589,"ELEMENT_SET_NO":999,"REV_AT_EPOCH":3441,"BSTAR":0.0012,"MEAN_MOTION_DOT":0.00032939,"MEAN_MOTION_DDOT":0},{"OBJECT_NAME":"STARLINK-33805","OBJECT_ID":"2025-076X","EPOCH":"2025-11-15T20:03:19.010880","MEAN_MOTION":15.27600756,"ECCENTRICITY":9.21e-5,"INCLINATION":43.0001,"RA_OF_ASC_NODE":245.0376,"ARG_OF_PERICENTER":297.3108,"MEAN_ANOMALY":62.765,"EPHEMERIS_TYPE":0,"CLASSIFICATION_TYPE":"U","NORAD_CAT_ID":63590,"ELEMENT_SET_NO":999,"REV_AT_EPOCH":3441,"BSTAR":0.0013929,"MEAN_MOTION_DOT":0.0003829,"MEAN_MOTION_DDOT":0},{"OBJECT_NAME":"STARLINK-33702","OBJECT_ID":"2025-076Y","EPOCH":"2025-11-15T12:40:06.439584","MEAN_MOTION":15.27574093,"ECCENTRICITY":9.44e-5,"INCLINATION":42.997,"RA_OF_ASC_NODE":246.1788,"ARG_OF_PERICENTER":270.1972,"MEAN_ANOMALY":89.8772,"EPHEMERIS_TYPE":0,"CLASSIFICATION_TYPE":"U","NORAD_CAT_ID":63591,"ELEMENT_SET_NO":999,"REV_AT_EPOCH":3437,"BSTAR":0.0013823,"MEAN_MOTION_DOT":0.00037965,"MEAN_MOTION_DDOT":0},{"OBJECT_NAME":"STARLINK-33666","OBJECT_ID":"2025-076Z","EPOCH":"2025-11-15T19:41:07.207584","MEAN_MOTION":15.27615173,"ECCENTRICITY":0.0001255,"INCLINATION":42.9999,"RA_OF_ASC_NODE":244.9267,"ARG_OF_PERICENTER":281.0779,"MEAN_ANOMALY":78.9932,"EPHEMERIS_TYPE":0,"CLASSIFICATION_TYPE":"U","NORAD_CAT_ID":63592,"ELEMENT_SET_NO":999,"REV_AT_EPOCH":3441,"BSTAR":0.00094618,"MEAN_MOTION_DOT":0.00025894,"MEAN_MOTION_DDOT":0},{"OBJECT_NAME":"STARLINK-33723","OBJECT_ID":"2025-076AA","EPOCH":"2025-11-15T20:40:07.142592","MEAN_MOTION":15.27613688,"ECCENTRICITY":0.0001752,"INCLINATION":43.0013,"RA_OF_ASC_NODE":244.378,"ARG_OF_PERICENTER":274.9986,"MEAN_ANOMALY":85.0665,"EPHEMERIS_TYPE":0,"CLASSIFICATION_TYPE":"U","NORAD_CAT_ID":63593,"ELEMENT_SET_NO":999,"REV_AT_EPOCH":3442,"BSTAR":0.00084757,"MEAN_MOTION_DOT":0.00023159,"MEAN_MOTION_DDOT":0},{"OBJECT_NAME":"STARLINK-33791","OBJECT_ID":"2025-076AB","EPOCH":"2025-11-15T19:44:49.683264","MEAN_MOTION":15.27613861,"ECCENTRICITY":0.0001726,"INCLINATION":43.0014,"RA_OF_ASC_NODE":244.9451,"ARG_OF_PERICENTER":280.1386,"MEAN_ANOMALY":79.9271,"EPHEMERIS_TYPE":0,"CLASSIFICATION_TYPE":"U","NORAD_CAT_ID":63594,"ELEMENT_SET_NO":999,"REV_AT_EPOCH":3441,"BSTAR":0.00099729,"MEAN_MOTION_DOT":0.00027311,"MEAN_MOTION_DDOT":0},{"OBJECT_NAME":"STARLINK-33831","OBJECT_ID":"2025-076AC","EPOCH":"2025-11-15T19:11:29.287392","MEAN_MOTION":15.27583155,"ECCENTRICITY":0.000376,"INCLINATION":43.0085,"RA_OF_ASC_NODE":244.7212,"ARG_OF_PERICENTER":282.4547,"MEAN_ANOMALY":77.5884,"EPHEMERIS_TYPE":0,"CLASSIFICATION_TYPE":"U","NORAD_CAT_ID":63595,"ELEMENT_SET_NO":999,"REV_AT_EPOCH":3441,"BSTAR":0.0018245,"MEAN_MOTION_DOT":0.00050297,"MEAN_MOTION_DDOT":0},{"OBJECT_NAME":"STARLINK-33879","OBJECT_ID":"2025-083A","EPOCH":"2025-11-15T04:52:39.935136","MEAN_MOTION":15.27613488,"ECCENTRICITY":0.0001656,"INCLINATION":43.0026,"RA_OF_ASC_NODE":292.1174,"ARG_OF_PERICENTER":264.6525,"MEAN_ANOMALY":95.4138,"EPHEMERIS_TYPE":0,"CLASSIFICATION_TYPE":"U","NORAD_CAT_ID":63634,"ELEMENT_SET_NO":999,"REV_AT_EPOCH":3255,"BSTAR":0.0012084,"MEAN_MOTION_DOT":0.00033176,"MEAN_MOTION_DDOT":0},{"OBJECT_NAME":"STARLINK-33854","OBJECT_ID":"2025-083B","EPOCH":"2025-11-15T14:50:41.672832","MEAN_MOTION":15.2761343,"ECCENTRICITY":0.0001661,"INCLINATION":42.9989,"RA_OF_ASC_NODE":289.2146,"ARG_OF_PERICENTER":252.6815,"MEAN_ANOMALY":107.3855,"EPHEMERIS_TYPE":0,"CLASSIFICATION_TYPE":"U","NORAD_CAT_ID":63635,"ELEMENT_SET_NO":999,"REV_AT_EPOCH":3262,"BSTAR":0.0012944,"MEAN_MOTION_DOT":0.00035566,"MEAN_MOTION_DDOT":0},{"OBJECT_NAME":"STARLINK-33864","OBJECT_ID":"2025-083C","EPOCH":"2025-11-14T07:00:00.601632","MEAN_MOTION":15.27596636,"ECCENTRICITY":0.0001865,"INCLINATION":43.0006,"RA_OF_ASC_NODE":297.3153,"ARG_OF_PERICENTER":280.2743,"MEAN_ANOMALY":79.7899,"EPHEMERIS_TYPE":0,"CLASSIFICATION_TYPE":"U","NORAD_CAT_ID":63636,"ELEMENT_SET_NO":999,"REV_AT_EPOCH":3244,"BSTAR":0.0013656,"MEAN_MOTION_DOT":0.00037526,"MEAN_MOTION_DDOT":0}]
